{
    "links": {
        "self": "http://www.neowsapp.com/rest/v1/neo/3546796?api_key=iIulBulltgU6a56xZRHN4H3l9WmuAYTsLGpBGhQ2"
    },
    "id": "3546796",
    "neo_reference_id": "3546796",
    "name": "(2010 SX3)",
    "designation": "2010 SX3",
    "nasa_jpl_url": "http://ssd.jpl.nasa.gov/sbdb.cgi?sstr=3546796",
    "absolute_magnitude_h": 24.9,
    "estimated_diameter": {
        "kilometers": {
            "estimated_diameter_min": 0.0278326768,
            "estimated_diameter_max": 0.0622357573
        },
        "meters": {
            "estimated_diameter_min": 27.8326768072,
            "estimated_diameter_max": 62.2357573367
        },
        "miles": {
            "estimated_diameter_min": 0.0172944182,
            "estimated_diameter_max": 0.0386714948
        },
        "feet": {
            "estimated_diameter_min": 91.3145593761,
            "estimated_diameter_max": 204.1855621004
        }
    },
    "is_potentially_hazardous_asteroid": false,
    "close_approach_data": [
        {
            "close_approach_date": "2010-09-16",
            "close_approach_date_full": "2010-Sep-16 03:57",
            "epoch_date_close_approach": 1284609420000,
            "relative_velocity": {
                "kilometers_per_second": "5.6297880382",
                "kilometers_per_hour": "20267.2369376846",
                "miles_per_hour": "12593.2728627518"
            },
            "miss_distance": {
                "astronomical": "0.0694812909",
                "lunar": "27.0282221601",
                "kilometers": "10394253.123490383",
                "miles": "6458689.3975299654"
            },
            "orbiting_body": "Earth"
        }
    ],
    "orbital_data": {
        "orbit_id": "6",
        "orbit_determination_date": "2017-04-06 08:56:34",
        "first_observation_date": "2010-09-18",
        "last_observation_date": "2010-09-19",
        "data_arc_in_days": 1,
        "observations_used": 18,
        "orbit_uncertainty": "8",
        "minimum_orbit_intersection": ".0656777",
        "jupiter_tisserand_invariant": "4.303",
        "epoch_osculation": "2455458.5",
        "eccentricity": ".3284407836631512",
        "semi_major_axis": "1.591969079266343",
        "inclination": "7.998159643355025",
        "ascending_node_longitude": "180.3854599422336",
        "orbital_period": "733.6693380806528",
        "perihelion_distance": "1.0691015073046",
        "perihelion_argument": "173.1306846602959",
        "aphelion_distance": "2.114836651228086",
        "perihelion_time": "2455454.932788006680",
        "mean_anomaly": "1.750374795483177",
        "mean_motion": ".4906842651238411",
        "equinox": "J2000",
        "orbit_class": {
            "orbit_class_type": "AMO",
            "orbit_class_description": "Near-Earth asteroid orbits similar to that of 1221 Amor",
            "orbit_class_range": "1.017 AU < q (perihelion) < 1.3 AU"
        }
    },
    "is_sentry_object": false
}